ONEWEB-0170             
1 48067U 21025AB  26050.23416147 -.00000328  00000+0 -93422-3 0  9993
2 48067  87.9038 343.6745 0001415  84.3091 275.8199 13.13469695238067
ONEWEB-0168             
1 48068U 21025AC  26049.83803886 -.00000264  00000+0 -75891-3 0  9997
2 48068  87.9048 343.7428 0002005  80.6543 279.4813 13.13468152238021
ONEWEB-0173             
1 48069U 21025AD  26050.28665521 -.00000119  00000+0 -36112-3 0  9993
2 48069  87.9046 343.6609 0002090  87.5939 272.5429 13.13470350238322
ONEWEB-0171             
1 48070U 21025AE  26050.24771759  .00000245  00000+0  63726-3 0  9991
2 48070  87.9035 343.6826 0001776  82.0951 278.0380 13.13471511238133
ONEWEB-0172             
1 48071U 21025AF  26050.22739226 -.00000232  00000+0 -66983-3 0  9999
2 48071  87.9038 343.6741 0001815  83.9278 276.2058 13.13472230239029
ONEWEB-0174             
1 48072U 21025AG  26050.28495628 -.00000080  00000+0 -25470-3 0  9998
2 48072  87.9041 343.6632 0001943  76.1831 283.9515 13.13470773238352
ONEWEB-0175             
1 48073U 21025AH  26050.23924126  .00000066  00000+0  14511-3 0  9990
2 48073  87.9046 343.6465 0001617  89.3061 270.8253 13.13473183238005
ONEWEB-0177             
1 48074U 21025AJ  26050.25109929  .00000369  00000+0  97669-3 0  9990
2 48074  87.9047 343.6651 0002013  79.5564 280.5792 13.13472338238191
ONEWEB-0178             
1 48075U 21025AK  26050.26986722  .00000341  00000+0  89937-3 0  9995
2 48075  87.9028 343.6923 0001831  89.6304 270.5035 13.13470932238247
ONEWEB-0108             
1 48076U 21025AL  26050.22908791 -.00000169  00000+0 -49737-3 0  9996
2 48076  87.9047 343.6583 0001755  72.0872 288.0449 13.13471560238164
ONEWEB-0169             
1 48077U 21025AM  26050.26125041  .00000383  00000+0  10139-2 0  9999
2 48077  87.9042 343.6686 0001782  71.6552 288.4771 13.13472005236822
ONEWEB-0176             
1 48210U 21031A   26050.27253276 -.00000005  00000+0 -47499-4 0  9992
2 48210  87.9018 313.2174 0001673  80.7235 279.4084 13.14504245232823
ONEWEB-0184             
1 48211U 21031B   26050.16945446  .00000298  00000+0  76838-3 0  9998
2 48211  87.9027 313.2264 0001583 109.2013 250.9288 13.14504860232783
ONEWEB-0179             
1 48212U 21031C   26050.14011314 -.00000225  00000+0 -64058-3 0  9998
2 48212  87.9019 313.2366 0001901  77.0808 283.0534 13.14504456232823
ONEWEB-0180             
1 48213U 21031D   26050.17262897  .00000298  00000+0  76843-3 0  9999
2 48213  87.9022 313.2300 0001910  86.8911 273.2438 13.14504690232711
ONEWEB-0218             
1 48214U 21031E   26050.27095063  .00000030  00000+0  47444-4 0  9990
2 48214  87.9023 313.2102 0001882 106.0990 254.0347 13.14504032232887
