[{"OBJECT_NAME":"ONEWEB-0170","OBJECT_ID":"2021-025AB","EPOCH":"2026-02-19T05:37:11.551008","MEAN_MOTION":13.13469695,"ECCENTRICITY":0.00014156,"INCLINATION":87.9038,"RA_OF_ASC_NODE":343.6745,"ARG_OF_PERICENTER":84.3091,"MEAN_ANOMALY":275.8199,"EPHEMERIS_TYPE":0,"CLASSIFICATION_TYPE":"U","NORAD_CAT_ID":48067,"ELEMENT_SET_NO":999,"REV_AT_EPOCH":23806,"BSTAR":-0.000934225,"MEAN_MOTION_DOT":-3.28e-6,"MEAN_MOTION_DDOT":0},{"OBJECT_NAME":"ONEWEB-0168","OBJECT_ID":"2021-025AC","EPOCH":"2026-02-18T20:06:46.557504","MEAN_MOTION":13.13468152,"ECCENTRICITY":0.00020052,"INCLINATION":87.9048,"RA_OF_ASC_NODE":343.7428,"ARG_OF_PERICENTER":80.6543,"MEAN_ANOMALY":279.4813,"EPHEMERIS_TYPE":0,"CLASSIFICATION_TYPE":"U","NORAD_CAT_ID":48068,"ELEMENT_SET_NO":999,"REV_AT_EPOCH":23802,"BSTAR":-0.00075890977,"MEAN_MOTION_DOT":-2.64e-6,"MEAN_MOTION_DDOT":0},{"OBJECT_NAME":"ONEWEB-0173","OBJECT_ID":"2021-025AD","EPOCH":"2026-02-19T06:52:47.010144","MEAN_MOTION":13.1347035,"ECCENTRICITY":0.00020905,"INCLINATION":87.9046,"RA_OF_ASC_NODE":343.6609,"ARG_OF_PERICENTER":87.5939,"MEAN_ANOMALY":272.5429,"EPHEMERIS_TYPE":0,"CLASSIFICATION_TYPE":"U","NORAD_CAT_ID":48069,"ELEMENT_SET_NO":999,"REV_AT_EPOCH":23832,"BSTAR":-0.0003611197,"MEAN_MOTION_DOT":-1.19e-6,"MEAN_MOTION_DDOT":0},{"OBJECT_NAME":"ONEWEB-0171","OBJECT_ID":"2021-025AE","EPOCH":"2026-02-19T05:56:42.799776","MEAN_MOTION":13.13471511,"ECCENTRICITY":0.00017762,"INCLINATION":87.9035,"RA_OF_ASC_NODE":343.6826,"ARG_OF_PERICENTER":82.0951,"MEAN_ANOMALY":278.038,"EPHEMERIS_TYPE":0,"CLASSIFICATION_TYPE":"U","NORAD_CAT_ID":48070,"ELEMENT_SET_NO":999,"REV_AT_EPOCH":23813,"BSTAR":0.00063726283,"MEAN_MOTION_DOT":2.45e-6,"MEAN_MOTION_DDOT":0},{"OBJECT_NAME":"ONEWEB-0172","OBJECT_ID":"2021-025AF","EPOCH":"2026-02-19T05:27:26.691264","MEAN_MOTION":13.1347223,"ECCENTRICITY":0.00018152,"INCLINATION":87.9038,"RA_OF_ASC_NODE":343.6741,"ARG_OF_PERICENTER":83.9278,"MEAN_ANOMALY":276.2058,"EPHEMERIS_TYPE":0,"CLASSIFICATION_TYPE":"U","NORAD_CAT_ID":48071,"ELEMENT_SET_NO":999,"REV_AT_EPOCH":23902,"BSTAR":-0.00066983182,"MEAN_MOTION_DOT":-2.32e-6,"MEAN_MOTION_DDOT":0},{"OBJECT_NAME":"ONEWEB-0174","OBJECT_ID":"2021-025AG","EPOCH":"2026-02-19T06:50:20.222592","MEAN_MOTION":13.13470773,"ECCENTRICITY":0.00019431,"INCLINATION":87.9041,"RA_OF_ASC_NODE":343.6632,"ARG_OF_PERICENTER":76.1831,"MEAN_ANOMALY":283.9515,"EPHEMERIS_TYPE":0,"CLASSIFICATION_TYPE":"U","NORAD_CAT_ID":48072,"ELEMENT_SET_NO":999,"REV_AT_EPOCH":23835,"BSTAR":-0.00025470191,"MEAN_MOTION_DOT":-8.0e-7,"MEAN_MOTION_DDOT":0},{"OBJECT_NAME":"ONEWEB-0175","OBJECT_ID":"2021-025AH","EPOCH":"2026-02-19T05:44:30.444864","MEAN_MOTION":13.13473183,"ECCENTRICITY":0.0001617,"INCLINATION":87.9046,"RA_OF_ASC_NODE":343.6465,"ARG_OF_PERICENTER":89.3061,"MEAN_ANOMALY":270.8253,"EPHEMERIS_TYPE":0,"CLASSIFICATION_TYPE":"U","NORAD_CAT_ID":48073,"ELEMENT_SET_NO":999,"REV_AT_EPOCH":23800,"BSTAR":0.00014511306,"MEAN_MOTION_DOT":6.6e-7,"MEAN_MOTION_DDOT":0},{"OBJECT_NAME":"ONEWEB-0177","OBJECT_ID":"2021-025AJ","EPOCH":"2026-02-19T06:01:34.978656","MEAN_MOTION":13.13472338,"ECCENTRICITY":0.00020132,"INCLINATION":87.9047,"RA_OF_ASC_NODE":343.6651,"ARG_OF_PERICENTER":79.5564,"MEAN_ANOMALY":280.5792,"EPHEMERIS_TYPE":0,"CLASSIFICATION_TYPE":"U","NORAD_CAT_ID":48074,"ELEMENT_SET_NO":999,"REV_AT_EPOCH":23819,"BSTAR":0.00097668873,"MEAN_MOTION_DOT":3.69e-6,"MEAN_MOTION_DDOT":0},{"OBJECT_NAME":"ONEWEB-0178","OBJECT_ID":"2021-025AK","EPOCH":"2026-02-19T06:28:36.527808","MEAN_MOTION":13.13470932,"ECCENTRICITY":0.00018312,"INCLINATION":87.9028,"RA_OF_ASC_NODE":343.6923,"ARG_OF_PERICENTER":89.6304,"MEAN_ANOMALY":270.5035,"EPHEMERIS_TYPE":0,"CLASSIFICATION_TYPE":"U","NORAD_CAT_ID":48075,"ELEMENT_SET_NO":999,"REV_AT_EPOCH":23824,"BSTAR":0.00089936979,"MEAN_MOTION_DOT":3.41e-6,"MEAN_MOTION_DDOT":0},{"OBJECT_NAME":"ONEWEB-0108","OBJECT_ID":"2021-025AL","EPOCH":"2026-02-19T05:29:53.195424","MEAN_MOTION":13.1347156,"ECCENTRICITY":0.0001755,"INCLINATION":87.9047,"RA_OF_ASC_NODE":343.6583,"ARG_OF_PERICENTER":72.0872,"MEAN_ANOMALY":288.0449,"EPHEMERIS_TYPE":0,"CLASSIFICATION_TYPE":"U","NORAD_CAT_ID":48076,"ELEMENT_SET_NO":999,"REV_AT_EPOCH":23816,"BSTAR":-0.00049736531,"MEAN_MOTION_DOT":-1.69e-6,"MEAN_MOTION_DDOT":0},{"OBJECT_NAME":"ONEWEB-0169","OBJECT_ID":"2021-025AM","EPOCH":"2026-02-19T06:16:12.035424","MEAN_MOTION":13.13472005,"ECCENTRICITY":0.00017829,"INCLINATION":87.9042,"RA_OF_ASC_NODE":343.6686,"ARG_OF_PERICENTER":71.6552,"MEAN_ANOMALY":288.4771,"EPHEMERIS_TYPE":0,"CLASSIFICATION_TYPE":"U","NORAD_CAT_ID":48077,"ELEMENT_SET_NO":999,"REV_AT_EPOCH":23682,"BSTAR":0.0010138626,"MEAN_MOTION_DOT":3.83e-6,"MEAN_MOTION_DDOT":0},{"OBJECT_NAME":"ONEWEB-0176","OBJECT_ID":"2021-031A","EPOCH":"2026-02-19T06:32:26.830464","MEAN_MOTION":13.14504245,"ECCENTRICITY":0.00016737,"INCLINATION":87.9018,"RA_OF_ASC_NODE":313.2174,"ARG_OF_PERICENTER":80.7235,"MEAN_ANOMALY":279.4084,"EPHEMERIS_TYPE":0,"CLASSIFICATION_TYPE":"U","NORAD_CAT_ID":48210,"ELEMENT_SET_NO":999,"REV_AT_EPOCH":23282,"BSTAR":-4.7499401e-5,"MEAN_MOTION_DOT":-5.0e-8,"MEAN_MOTION_DDOT":0},{"OBJECT_NAME":"ONEWEB-0184","OBJECT_ID":"2021-031B","EPOCH":"2026-02-19T04:04:00.865344","MEAN_MOTION":13.1450486,"ECCENTRICITY":0.0001583,"INCLINATION":87.9027,"RA_OF_ASC_NODE":313.2264,"ARG_OF_PERICENTER":109.2013,"MEAN_ANOMALY":250.9288,"EPHEMERIS_TYPE":0,"CLASSIFICATION_TYPE":"U","NORAD_CAT_ID":48211,"ELEMENT_SET_NO":999,"REV_AT_EPOCH":23278,"BSTAR":0.00076838356,"MEAN_MOTION_DOT":2.98e-6,"MEAN_MOTION_DDOT":0},{"OBJECT_NAME":"ONEWEB-0179","OBJECT_ID":"2021-031C","EPOCH":"2026-02-19T03:21:45.775296","MEAN_MOTION":13.14504456,"ECCENTRICITY":0.00019012,"INCLINATION":87.9019,"RA_OF_ASC_NODE":313.2366,"ARG_OF_PERICENTER":77.0808,"MEAN_ANOMALY":283.0534,"EPHEMERIS_TYPE":0,"CLASSIFICATION_TYPE":"U","NORAD_CAT_ID":48212,"ELEMENT_SET_NO":999,"REV_AT_EPOCH":23282,"BSTAR":-0.00064057981,"MEAN_MOTION_DOT":-2.25e-6,"MEAN_MOTION_DDOT":0},{"OBJECT_NAME":"ONEWEB-0180","OBJECT_ID":"2021-031D","EPOCH":"2026-02-19T04:08:35.143008","MEAN_MOTION":13.1450469,"ECCENTRICITY":0.00019104,"INCLINATION":87.9022,"RA_OF_ASC_NODE":313.23,"ARG_OF_PERICENTER":86.8911,"MEAN_ANOMALY":273.2438,"EPHEMERIS_TYPE":0,"CLASSIFICATION_TYPE":"U","NORAD_CAT_ID":48213,"ELEMENT_SET_NO":999,"REV_AT_EPOCH":23271,"BSTAR":0.00076843228,"MEAN_MOTION_DOT":2.98e-6,"MEAN_MOTION_DDOT":0},{"OBJECT_NAME":"ONEWEB-0218","OBJECT_ID":"2021-031E","EPOCH":"2026-02-19T06:30:10.134432","MEAN_MOTION":13.14504032,"ECCENTRICITY":0.00018823,"INCLINATION":87.9023,"RA_OF_ASC_NODE":313.2102,"ARG_OF_PERICENTER":106.099,"MEAN_ANOMALY":254.0347,"EPHEMERIS_TYPE":0,"CLASSIFICATION_TYPE":"U","NORAD_CAT_ID":48214,"ELEMENT_SET_NO":999,"REV_AT_EPOCH":23288,"BSTAR":4.7444146e-5,"MEAN_MOTION_DOT":3.0e-7,"MEAN_MOTION_DDOT":0}]
